"{\n    \"CCSDS_OMM_VERS\": \"2.0\",\n    \"COMMENT\": \"GENERATED VIA SPACE-TRACK.ORG API\",\n    \"CREATION_DATE\": \"2025-08-31T11:35:43\",\n    \"ORIGINATOR\": \"18 SPCS\",\n    \"OBJECT_NAME\": \"NAVSTAR 69 (USA 248)\",\n    \"OBJECT_ID\": \"2014-008A\",\n    \"CENTER_NAME\": \"EARTH\",\n    \"REF_FRAME\": \"TEME\",\n    \"TIME_SYSTEM\": \"UTC\",\n    \"MEAN_ELEMENT_THEORY\": \"SGP4\",\n    \"EPOCH\": \"2025-08-31T00:13:37.480512\",\n    \"MEAN_MOTION\": \"2.0056833045\",\n    \"ECCENTRICITY\": \"0.0078483448\",\n    \"INCLINATION\": \"53.619328\",\n    \"RA_OF_ASC_NODE\": \"161.15508\",\n    \"ARG_OF_PERICENTER\": \"226.3315\",\n    \"MEAN_ANOMALY\": \"133.03692\",\n    \"EPHEMERIS_TYPE\": \"0\",\n    \"CLASSIFICATION_TYPE\": \"U\",\n    \"NORAD_CAT_ID\": \"39533\",\n    \"ELEMENT_SET_NO\": \"999\",\n    \"REV_AT_EPOCH\": \"8386\",\n    \"BSTAR\": \"0\",\n    \"MEAN_MOTION_DOT\": \"-0.000000093659\",\n    \"MEAN_MOTION_DDOT\": \"0\",\n    \"TLE_LINE0\": \"0 NAVSTAR 69 (USA 248)\",\n    \"TLE_LINE1\": \"1 39533U 14008A   25243.00946158 -.00000009  00000-0  00000-0 0  9995\",\n    \"TLE_LINE2\": \"2 39533  53.6193 161.1551 0078483 226.3315 133.0369  2.00568330 83861\",\n    \"SEMIMAJOR_AXIS\": \"26559.931\",\n    \"PERIOD\": \"717.960\",\n    \"APOAPSIS\": \"20390.247\",\n    \"PERIAPSIS\": \"19973.344\",\n    \"OBJECT_TYPE\": \"PAYLOAD\",\n    \"DECAYED\": \"0\"\n}"